{
  "links" : {
    "next" : "https://api.nasa.gov/neo/rest/v1/feed?start_date=2012-12-23&end_date=2012-12-23&detailed=true&api_key=t0TVs3DtDT2H8Oy2Zy8m2eVrNsAVKAexjcZXUckd",
    "prev" : "https://api.nasa.gov/neo/rest/v1/feed?start_date=2012-12-21&end_date=2012-12-21&detailed=true&api_key=t0TVs3DtDT2H8Oy2Zy8m2eVrNsAVKAexjcZXUckd",
    "self" : "https://api.nasa.gov/neo/rest/v1/feed?start_date=2012-12-22&end_date=2012-12-22&detailed=true&api_key=t0TVs3DtDT2H8Oy2Zy8m2eVrNsAVKAexjcZXUckd"
  },
  "element_count" : 5,
  "near_earth_objects" : {
    "2012-12-22" : [ {
      "links" : {
        "self" : "https://api.nasa.gov/neo/rest/v1/neo/3621619?api_key=t0TVs3DtDT2H8Oy2Zy8m2eVrNsAVKAexjcZXUckd"
      },
      "neo_reference_id" : "3621619",
      "name" : "(2012 YN1)",
      "nasa_jpl_url" : "http://ssd.jpl.nasa.gov/sbdb.cgi?sstr=3621619",
      "absolute_magnitude_h" : 23.2,
      "estimated_diameter" : {
        "kilometers" : {
          "estimated_diameter_min" : 0.0608912622,
          "estimated_diameter_max" : 0.1361570015
        },
        "meters" : {
          "estimated_diameter_min" : 60.8912622106,
          "estimated_diameter_max" : 136.1570015386
        },
        "miles" : {
          "estimated_diameter_min" : 0.0378360645,
          "estimated_diameter_max" : 0.0846040122
        },
        "feet" : {
          "estimated_diameter_min" : 199.7744887109,
          "estimated_diameter_max" : 446.7093369279
        }
      },
      "is_potentially_hazardous_asteroid" : false,
      "close_approach_data" : [ {
        "close_approach_date" : "2012-12-22",
        "epoch_date_close_approach" : 1356163200000,
        "relative_velocity" : {
          "kilometers_per_second" : "14.0596174646",
          "kilometers_per_hour" : "50614.6228723922",
          "miles_per_hour" : "31449.9583064595"
        },
        "miss_distance" : {
          "astronomical" : "0.1398238556",
          "lunar" : "54.3914794922",
          "kilometers" : "20917352",
          "miles" : "12997439"
        },
        "orbiting_body" : "Earth"
      } ],
      "orbital_data" : {
        "orbit_id" : "9",
        "orbit_determination_date" : "2017-04-06 08:47:33",
        "orbit_uncertainty" : "1",
        "minimum_orbit_intersection" : ".132872",
        "jupiter_tisserand_invariant" : "5.139",
        "epoch_osculation" : "2458000.5",
        "eccentricity" : ".0871629160254597",
        "semi_major_axis" : "1.21555280293397",
        "inclination" : "26.99284126269086",
        "ascending_node_longitude" : "89.37854178676075",
        "orbital_period" : "489.5072974261843",
        "perihelion_distance" : "1.109601676047324",
        "perihelion_argument" : "21.28053183380859",
        "aphelion_distance" : "1.321503929820616",
        "perihelion_time" : "2457771.972155620529",
        "mean_anomaly" : "168.0670020838973",
        "mean_motion" : ".7354333671691309",
        "equinox" : "J2000"
      }
    }, {
      "links" : {
        "self" : "https://api.nasa.gov/neo/rest/v1/neo/3703166?api_key=t0TVs3DtDT2H8Oy2Zy8m2eVrNsAVKAexjcZXUckd"
      },
      "neo_reference_id" : "3703166",
      "name" : "(2014 YS34)",
      "nasa_jpl_url" : "http://ssd.jpl.nasa.gov/sbdb.cgi?sstr=3703166",
      "absolute_magnitude_h" : 20.8,
      "estimated_diameter" : {
        "kilometers" : {
          "estimated_diameter_min" : 0.1838886721,
          "estimated_diameter_max" : 0.411187571
        },
        "meters" : {
          "estimated_diameter_min" : 183.8886720703,
          "estimated_diameter_max" : 411.1875710413
        },
        "miles" : {
          "estimated_diameter_min" : 0.1142630881,
          "estimated_diameter_max" : 0.2555000322
        },
        "feet" : {
          "estimated_diameter_min" : 603.309310875,
          "estimated_diameter_max" : 1349.040630575
        }
      },
      "is_potentially_hazardous_asteroid" : true,
      "close_approach_data" : [ {
        "close_approach_date" : "2012-12-22",
        "epoch_date_close_approach" : 1356163200000,
        "relative_velocity" : {
          "kilometers_per_second" : "5.3161944276",
          "kilometers_per_hour" : "19138.2999394447",
          "miles_per_hour" : "11891.7953151511"
        },
        "miss_distance" : {
          "astronomical" : "0.4789780091",
          "lunar" : "186.3224487305",
          "kilometers" : "71654088",
          "miles" : "44523788"
        },
        "orbiting_body" : "Earth"
      } ],
      "orbital_data" : {
        "orbit_id" : "37",
        "orbit_determination_date" : "2017-06-03 06:17:54",
        "orbit_uncertainty" : "0",
        "minimum_orbit_intersection" : ".00676109",
        "jupiter_tisserand_invariant" : "4.351",
        "epoch_osculation" : "2458000.5",
        "eccentricity" : ".3854135580932306",
        "semi_major_axis" : "1.553277835302536",
        "inclination" : "6.881721429696836",
        "ascending_node_longitude" : "210.1292860723225",
        "orbital_period" : "707.085846939892",
        "perihelion_distance" : ".9546234980912344",
        "perihelion_argument" : "321.8832306186957",
        "aphelion_distance" : "2.151932172513837",
        "perihelion_time" : "2457798.407627837803",
        "mean_anomaly" : "102.8916846423254",
        "mean_motion" : ".5091319555581529",
        "equinox" : "J2000"
      }
    } ]
  }
}